[{"OBJECT_NAME":"EAGLET-I","OBJECT_ID":"2018-099AJ","EPOCH":"2026-03-09T16:28:56.807904","MEAN_MOTION":15.12108145,"ECCENTRICITY":0.00104863,"INCLINATION":97.4369,"RA_OF_ASC_NODE":120.9821,"ARG_OF_PERICENTER":336.8524,"MEAN_ANOMALY":23.2233,"EPHEMERIS_TYPE":0,"CLASSIFICATION_TYPE":"U","NORAD_CAT_ID":43790,"ELEMENT_SET_NO":999,"REV_AT_EPOCH":39729,"BSTAR":0.0003526184,"MEAN_MOTION_DOT":6.017e-5,"MEAN_MOTION_DDOT":0},{"OBJECT_NAME":"STARLINK-4610","OBJECT_ID":"2022-104Y","EPOCH":"2026-03-09T16:36:46.236384","MEAN_MOTION":15.08834912,"ECCENTRICITY":0.00012248,"INCLINATION":53.2172,"RA_OF_ASC_NODE":234.2353,"ARG_OF_PERICENTER":91.6869,"MEAN_ANOMALY":268.4263,"EPHEMERIS_TYPE":0,"CLASSIFICATION_TYPE":"U","NORAD_CAT_ID":53610,"ELEMENT_SET_NO":999,"REV_AT_EPOCH":19563,"BSTAR":-3.082662e-6,"MEAN_MOTION_DOT":-3.37e-6,"MEAN_MOTION_DDOT":0}]
